{"type": "FeatureCollection", "features": [ {"type": "Feature", "properties": {"norad_id": 31634, "name": "FENGYUN 1C DEB", "group": "fengyun-1c-debris", "lat": -15.388128134733954, "lon": 25.61124672237738, "alt_km": 979.5457551600584, "timestamp": "2025-12-02T15:49:07.473439+00:00", "meta": {"OBJECT_NAME": "FENGYUN 1C DEB", "OBJECT_ID": "1999-025CAQ", "EPOCH": "2025-12-01T20:57:17.747712", "MEAN_MOTION": 13.94657188, "ECCENTRICITY": 0.00916767, "INCLINATION": 99.3687, "RA_OF_ASC_NODE": 22.2096, "ARG_OF_PERICENTER": 187.087, "MEAN_ANOMALY": 172.9, "EPHEMERIS_TYPE": 0, "CLASSIFICATION_TYPE": "U", "NORAD_CAT_ID": 31634, "ELEMENT_SET_NO": 999, "REV_AT_EPOCH": 56372, "BSTAR": 0.00029676321, "MEAN_MOTION_DOT": 3.65e-06, "MEAN_MOTION_DDOT": 0}, "tle": {"line1": "1 31634U 99025CAQ 25335.87312208  .00000365  00000+0  29676-3 0  9997", "line2": "2 31634  99.3687  22.2096 0091676 187.0870 172.9000 13.94657188563726"}}, "geometry": {"type": "Point", "coordinates": [25.61124672237738, -15.388128134733954]}}, {"type": "Feature", "properties": {"norad_id": 31639, "name": "FENGYUN 1C DEB", "group": "fengyun-1c-debris", "lat": -23.35700260981452, "lon": 99.46562103051606, "alt_km": 849.3740550194934, "timestamp": "2025-12-02T15:49:07.473450+00:00", "meta": {"OBJECT_NAME": "FENGYUN 1C DEB", "OBJECT_ID": "1999-025CAV", "EPOCH": "2025-11-30T08:06:41.226624", "MEAN_MOTION": 13.85157464, "ECCENTRICITY": 0.01610819, "INCLINATION": 98.7412, "RA_OF_ASC_NODE": 281.1108, "ARG_OF_PERICENTER": 178.8374, "MEAN_ANOMALY": 335.5568, "EPHEMERIS_TYPE": 0, "CLASSIFICATION_TYPE": "U", "NORAD_CAT_ID": 31639, "ELEMENT_SET_NO": 999, "REV_AT_EPOCH": 93516, "BSTAR": 0.00014166692, "MEAN_MOTION_DOT": 1.38e-06, "MEAN_MOTION_DDOT": 0}, "tle": {"line1": "1 31639U 99025CAV 25334.33797716  .00000138  00000+0  14167-3 0  9990", "line2": "2 31639  98.7412 281.1108 0161081 178.8374 335.5568 13.85157464935164"}}, "geometry": {"type": "Point", "coordinates": [99.46562103051606, -23.35700260981452]}}, {"type": "Feature", "properties": {"norad_id": 31642, "name": "FENGYUN 1C DEB", "group": "fengyun-1c-debris", "lat": 74.75717010578718, "lon": 25.72222171003215, "alt_km": 847.4567106780642, "timestamp": "2025-12-02T15:49:07.473460+00:00", "meta": {"OBJECT_NAME": "FENGYUN 1C DEB", "OBJECT_ID": "1999-025CAY", "EPOCH": "2025-12-01T22:42:11.128896", "MEAN_MOTION": 14.33362489, "ECCENTRICITY": 0.01189843, "INCLINATION": 98.5053, "RA_OF_ASC_NODE": 58.3303, "ARG_OF_PERICENTER": 288.689, "MEAN_ANOMALY": 70.141, "EPHEMERIS_TYPE": 0, "CLASSIFICATION_TYPE": "U", "NORAD_CAT_ID": 31642, "ELEMENT_SET_NO": 999, "REV_AT_EPOCH": 96864, "BSTAR": 0.00039489571, "MEAN_MOTION_DOT": 1.132e-05, "MEAN_MOTION_DDOT": 0}, "tle": {"line1": "1 31642U 99025CAY 25335.94596214  .00001132  00000+0  39490-3 0  9993", "line2": "2 31642  98.5053  58.3303 0118984 288.6890  70.1410 14.33362489968641"}}, "geometry": {"type": "Point", "coordinates": [25.72222171003215, 74.75717010578718]}}, {"type": "Feature", "properties": {"norad_id": 31644, "name": "FENGYUN 1C DEB", "group": "fengyun-1c-debris", "lat": -28.977256293055003, "lon": 41.055198260440676, "alt_km": 566.3491653666415, "timestamp": "2025-12-02T15:49:07.473471+00:00", "meta": {"OBJECT_NAME": "FENGYUN 1C DEB", "OBJECT_ID": "1999-025CBA", "EPOCH": "2025-11-21T12:42:57.254976", "MEAN_MOTION": 14.67516409, "ECCENTRICITY": 0.01542321, "INCLINATION": 98.6708, "RA_OF_ASC_NODE": 214.1231, "ARG_OF_PERICENTER": 249.7824, "MEAN_ANOMALY": 233.9489, "EPHEMERIS_TYPE": 0, "CLASSIFICATION_TYPE": "U", "NORAD_CAT_ID": 31644, "ELEMENT_SET_NO": 999, "REV_AT_EPOCH": 70733, "BSTAR": 0.0012165012, "MEAN_MOTION_DOT": 8.195e-05, "MEAN_MOTION_DDOT": 0}, "tle": {"line1": "1 31644U 99025CBA 25325.52982934  .00008195  00000+0  12165-2 0  9991", "line2": "2 31644  98.6708 214.1231 0154232 249.7824 233.9489 14.67516409707336"}}, "geometry": {"type": "Point", "coordinates": [41.055198260440676, -28.977256293055003]}}, {"type": "Feature", "properties": {"norad_id": 31646, "name": "FENGYUN 1C DEB", "group": "fengyun-1c-debris", "lat": 10.47161657834682, "lon": -178.43419845673853, "alt_km": 840.3574115388155, "timestamp": "2025-12-02T15:49:07.473481+00:00", "meta": {"OBJECT_NAME": "FENGYUN 1C DEB", "OBJECT_ID": "1999-025CBC", "EPOCH": "2025-11-26T07:52:55.511328", "MEAN_MOTION": 14.14089846, "ECCENTRICITY": 0.00324277, "INCLINATION": 98.6918, "RA_OF_ASC_NODE": 353.7887, "ARG_OF_PERICENTER": 261.5394, "MEAN_ANOMALY": 98.2104, "EPHEMERIS_TYPE": 0, "CLASSIFICATION_TYPE": "U", "NORAD_CAT_ID": 31646, "ELEMENT_SET_NO": 999, "REV_AT_EPOCH": 62959, "BSTAR": 0.00056384742, "MEAN_MOTION_DOT": 1.035e-05, "MEAN_MOTION_DDOT": 0}, "tle": {"line1": "1 31646U 99025CBC 25330.32842027  .00001035  00000+0  56385-3 0  9994", "line2": "2 31646  98.6918 353.7887 0032427 261.5394  98.2104 14.14089846629592"}}, "geometry": {"type": "Point", "coordinates": [-178.43419845673853, 10.47161657834682]}}, {"type": "Feature", "properties": {"norad_id": 31655, "name": "FENGYUN 1C DEB", "group": "fengyun-1c-debris", "lat": 3.994088812285539, "lon": -77.66167278934674, "alt_km": 1224.3328357978253, "timestamp": "2025-12-02T15:49:07.473492+00:00", "meta": {"OBJECT_NAME": "FENGYUN 1C DEB", "OBJECT_ID": "1999-025CBM", "EPOCH": "2025-12-02T03:33:47.704320", "MEAN_MOTION": 13.63773307, "ECCENTRICITY": 0.02884116, "INCLINATION": 99.2856, "RA_OF_ASC_NODE": 282.5047, "ARG_OF_PERICENTER": 165.6221, "MEAN_ANOMALY": 213.94, "EPHEMERIS_TYPE": 0, "CLASSIFICATION_TYPE": "U", "NORAD_CAT_ID": 31655, "ELEMENT_SET_NO": 999, "REV_AT_EPOCH": 59575, "BSTAR": 0.002889873, "MEAN_MOTION_DOT": 2.997e-05, "MEAN_MOTION_DDOT": 0}, "tle": {"line1": "1 31655U 99025CBM 25336.14846880  .00002997  00000+0  28899-2 0  9997", "line2": "2 31655  99.2856 282.5047 0288411 165.6221 213.9400 13.63773307595756"}}, "geometry": {"type": "Point", "coordinates": [-77.66167278934674, 3.994088812285539]}}, {"type": "Feature", "properties": {"norad_id": 31656, "name": "FENGYUN 1C DEB", "group": "fengyun-1c-debris", "lat": -0.038231517216890186, "lon": -35.40338473743039, "alt_km": 736.4371553566016, "timestamp": "2025-12-02T15:49:07.473502+00:00", "meta": {"OBJECT_NAME": "FENGYUN 1C DEB", "OBJECT_ID": "1999-025CBN", "EPOCH": "2025-11-30T22:27:22.794336", "MEAN_MOTION": 14.46709759, "ECCENTRICITY": 0.00226463, "INCLINATION": 99.1923, "RA_OF_ASC_NODE": 322.7218, "ARG_OF_PERICENTER": 85.2285, "MEAN_ANOMALY": 304.2152, "EPHEMERIS_TYPE": 0, "CLASSIFICATION_TYPE": "U", "NORAD_CAT_ID": 31656, "ELEMENT_SET_NO": 999, "REV_AT_EPOCH": 96285, "BSTAR": 0.0023435698, "MEAN_MOTION_DOT": 8.458e-05, "MEAN_MOTION_DDOT": 0}, "tle": {"line1": "1 31656U 99025CBN 25334.93568049  .00008458  00000+0  23436-2 0  9991", "line2": "2 31656  99.1923 322.7218 0022646  85.2285 304.2152 14.46709759962850"}}, "geometry": {"type": "Point", "coordinates": [-35.40338473743039, -0.038231517216890186]}}, {"type": "Feature", "properties": {"norad_id": 31657, "name": "FENGYUN 1C DEB", "group": "fengyun-1c-debris", "lat": -37.63715546274465, "lon": 48.16343672160393, "alt_km": 991.1481511234451, "timestamp": "2025-12-02T15:49:07.473513+00:00", "meta": {"OBJECT_NAME": "FENGYUN 1C DEB", "OBJECT_ID": "1999-025CBP", "EPOCH": "2025-12-01T23:19:04.849824", "MEAN_MOTION": 13.96877363, "ECCENTRICITY": 0.0144659, "INCLINATION": 102.2169, "RA_OF_ASC_NODE": 236.8704, "ARG_OF_PERICENTER": 80.0199, "MEAN_ANOMALY": 281.7242, "EPHEMERIS_TYPE": 0, "CLASSIFICATION_TYPE": "U", "NORAD_CAT_ID": 31657, "ELEMENT_SET_NO": 999, "REV_AT_EPOCH": 62714, "BSTAR": 0.0034958058, "MEAN_MOTION_DOT": 5.25e-05, "MEAN_MOTION_DDOT": 0}, "tle": {"line1": "1 31657U 99025CBP 25335.97158391  .00005250  00000+0  34958-2 0  9990", "line2": "2 31657 102.2169 236.8704 0144659  80.0199 281.7242 13.96877363627140"}}, "geometry": {"type": "Point", "coordinates": [48.16343672160393, -37.63715546274465]}}, {"type": "Feature", "properties": {"norad_id": 31658, "name": "FENGYUN 1C DEB", "group": "fengyun-1c-debris", "lat": 80.11402622185162, "lon": 62.20653475099786, "alt_km": 927.9956252613047, "timestamp": "2025-12-02T15:49:07.473523+00:00", "meta": {"OBJECT_NAME": "FENGYUN 1C DEB", "OBJECT_ID": "1999-025CBQ", "EPOCH": "2025-11-30T13:35:01.131648", "MEAN_MOTION": 13.98632883, "ECCENTRICITY": 0.0215722, "INCLINATION": 98.1534, "RA_OF_ASC_NODE": 184.9954, "ARG_OF_PERICENTER": 356.7033, "MEAN_ANOMALY": 3.2699, "EPHEMERIS_TYPE": 0, "CLASSIFICATION_TYPE": "U", "NORAD_CAT_ID": 31658, "ELEMENT_SET_NO": 999, "REV_AT_EPOCH": 69646, "BSTAR": 0.0024889, "MEAN_MOTION_DOT": 4.324e-05, "MEAN_MOTION_DDOT": 0}, "tle": {"line1": "1 31658U 99025CBQ 25334.56598532  .00004324  00000+0  24889-2 0  9993", "line2": "2 31658  98.1534 184.9954 0215722 356.7033   3.2699 13.98632883696462"}}, "geometry": {"type": "Point", "coordinates": [62.20653475099786, 80.11402622185162]}}, {"type": "Feature", "properties": {"norad_id": 31660, "name": "FENGYUN 1C DEB", "group": "fengyun-1c-debris", "lat": 18.738488696337388, "lon": -24.629783259036994, "alt_km": 872.7475801236496, "timestamp": "2025-12-02T15:49:07.473534+00:00", "meta": {"OBJECT_NAME": "FENGYUN 1C DEB", "OBJECT_ID": "1999-025CBS", "EPOCH": "2025-11-21T18:54:02.073600", "MEAN_MOTION": 14.27033891, "ECCENTRICITY": 0.01009939, "INCLINATION": 98.5056, "RA_OF_ASC_NODE": 327.7074, "ARG_OF_PERICENTER": 242.467, "MEAN_ANOMALY": 116.6221, "EPHEMERIS_TYPE": 0, "CLASSIFICATION_TYPE": "U", "NORAD_CAT_ID": 31660, "ELEMENT_SET_NO": 999, "REV_AT_EPOCH": 7617, "BSTAR": 0.00068848685, "MEAN_MOTION_DOT": 1.726e-05, "MEAN_MOTION_DDOT": 0}, "tle": {"line1": "1 31660U 99025CBS 25325.78752400  .00001726  00000+0  68849-3 0  9994", "line2": "2 31660  98.5056 327.7074 0100993 242.4670 116.6221 14.27033891 76176"}}, "geometry": {"type": "Point", "coordinates": [-24.629783259036994, 18.738488696337388]}}]}